{
  "type": "FeatureCollection",
  "features": [
    {
      "type": "Feature",
      "properties": {
        "norad_id": 28051,
        "name": "IRS-P6 (RESOURCESAT-1)",
        "group": "resource",
        "lat": -81.7738299667606,
        "lon": 112.5549140832778,
        "alt_km": 770.7657525429286,
        "timestamp": "2025-12-09T14:52:25.822301+00:00",
        "meta_object_name": "IRS-P6 (RESOURCESAT-1)",
        "meta_object_id": "2003-046A",
        "meta_epoch": "2025-12-09T07:21:48.160224",
        "meta_mean_motion": 14.36072904,
        "meta_eccentricity": 0.00639111,
        "meta_inclination": 98.2177,
        "meta_ra_of_asc_node": 23.8727,
        "meta_arg_of_pericenter": 190.9971,
        "meta_mean_anomaly": 261.6163,
        "meta_ephemeris_type": 0,
        "meta_classification_type": "U",
        "meta_norad_cat_id": 28051,
        "meta_element_set_no": 999,
        "meta_rev_at_epoch": 15327,
        "meta_bstar": 0.00015566742,
        "meta_mean_motion_dot": 4.22e-06,
        "meta_mean_motion_ddot": 0,
        "tle_line1": "1 28051U 03046A   25343.30680741  .00000422  00000+0  15567-3 0  9999",
        "tle_line2": "2 28051  98.2177  23.8727 0063911 190.9971 261.6163 14.36072904153276"
      },
      "geometry": {
        "type": "Point",
        "coordinates": [
          112.5549140832778,
          -81.7738299667606
        ]
      }
    },
    {
      "type": "Feature",
      "properties": {
        "norad_id": 28220,
        "name": "SHIYAN-1 (SY-1)",
        "group": "resource",
        "lat": -11.197446433529626,
        "lon": -136.59999457068562,
        "alt_km": 489.5427257748979,
        "timestamp": "2025-12-09T14:52:25.822312+00:00",
        "meta_object_name": "SHIYAN-1 (SY-1)",
        "meta_object_id": "2004-012A",
        "meta_epoch": "2025-12-09T03:02:15.771552",
        "meta_mean_motion": 15.27994038,
        "meta_eccentricity": 0.00058813,
        "meta_inclination": 97.8933,
        "meta_ra_of_asc_node": 44.4517,
        "meta_arg_of_pericenter": 339.3604,
        "meta_mean_anomaly": 20.7396,
        "meta_ephemeris_type": 0,
        "meta_classification_type": "U",
        "meta_norad_cat_id": 28220,
        "meta_element_set_no": 999,
        "meta_rev_at_epoch": 18201,
        "meta_bstar": 0.00059931841,
        "meta_mean_motion_dot": 0.00016313,
        "meta_mean_motion_ddot": 0,
        "tle_line1": "1 28220U 04012A   25343.12657143  .00016313  00000+0  59932-3 0  9991",
        "tle_line2": "2 28220  97.8933  44.4517 0005881 339.3604  20.7396 15.27994038182017"
      },
      "geometry": {
        "type": "Point",
        "coordinates": [
          -136.59999457068562,
          -11.197446433529626
        ]
      }
    },
    {
      "type": "Feature",
      "properties": {
        "norad_id": 28376,
        "name": "AURA",
        "group": "resource",
        "lat": -74.95936784477348,
        "lon": 80.84365646336079,
        "alt_km": 698.2671830332183,
        "timestamp": "2025-12-09T14:52:25.822324+00:00",
        "meta_object_name": "AURA",
        "meta_object_id": "2004-026A",
        "meta_epoch": "2025-12-09T07:07:26.977728",
        "meta_mean_motion": 14.60934841,
        "meta_eccentricity": 0.00011798,
        "meta_inclination": 98.3181,
        "meta_ra_of_asc_node": 293.5076,
        "meta_arg_of_pericenter": 93.6429,
        "meta_mean_anomaly": 266.4906,
        "meta_ephemeris_type": 0,
        "meta_classification_type": "U",
        "meta_norad_cat_id": 28376,
        "meta_element_set_no": 999,
        "meta_rev_at_epoch": 13848,
        "meta_bstar": 0.00041523483,
        "meta_mean_motion_dot": 1.986e-05,
        "meta_mean_motion_ddot": 0,
        "tle_line1": "1 28376U 04026A   25343.29684002  .00001986  00000+0  41523-3 0  9997",
        "tle_line2": "2 28376  98.3181 293.5076 0001179  93.6429 266.4906 14.60934841138488"
      },
      "geometry": {
        "type": "Point",
        "coordinates": [
          80.84365646336079,
          -74.95936784477348
        ]
      }
    },
    {
      "type": "Feature",
      "properties": {
        "norad_id": 28649,
        "name": "IRS-P5 (CARTOSAT-1)",
        "group": "resource",
        "lat": 39.26998665831013,
        "lon": -163.6035740124182,
        "alt_km": 593.8384489533173,
        "timestamp": "2025-12-09T14:52:25.822335+00:00",
        "meta_object_name": "IRS-P5 (CARTOSAT-1)",
        "meta_object_id": "2005-017A",
        "meta_epoch": "2025-12-09T07:48:05.699808",
        "meta_mean_motion": 14.90387577,
        "meta_eccentricity": 0.0001443,
        "meta_inclination": 97.5496,
        "meta_ra_of_asc_node": 9.8897,
        "meta_arg_of_pericenter": 47.2834,
        "meta_mean_anomaly": 312.8506,
        "meta_ephemeris_type": 0,
        "meta_classification_type": "U",
        "meta_norad_cat_id": 28649,
        "meta_element_set_no": 999,
        "meta_rev_at_epoch": 11553,
        "meta_bstar": 0.00024979701,
        "meta_mean_motion_dot": 2.38e-05,
        "meta_mean_motion_ddot": 0,
        "tle_line1": "1 28649U 05017A   25343.32506597  .00002380  00000+0  24980-3 0  9994",
        "tle_line2": "2 28649  97.5496   9.8897 0001443  47.2834 312.8506 14.90387577115533"
      },
      "geometry": {
        "type": "Point",
        "coordinates": [
          -163.6035740124182,
          39.26998665831013
        ]
      }
    },
    {
      "type": "Feature",
      "properties": {
        "norad_id": 28893,
        "name": "SINAH 1",
        "group": "resource",
        "lat": 68.16149460289559,
        "lon": 90.91525240727682,
        "alt_km": 671.2605837071123,
        "timestamp": "2025-12-09T14:52:25.822345+00:00",
        "meta_object_name": "SINAH 1",
        "meta_object_id": "2005-043D",
        "meta_epoch": "2025-12-09T06:21:15.761664",
        "meta_mean_motion": 14.63956923,
        "meta_eccentricity": 0.0015169,
        "meta_inclination": 98.2601,
        "meta_ra_of_asc_node": 111.8128,
        "meta_arg_of_pericenter": 147.3178,
        "meta_mean_anomaly": 212.8966,
        "meta_ephemeris_type": 0,
        "meta_classification_type": "U",
        "meta_norad_cat_id": 28893,
        "meta_element_set_no": 999,
        "meta_rev_at_epoch": 7273,
        "meta_bstar": 0.00019052924,
        "meta_mean_motion_dot": 9.5e-06,
        "meta_mean_motion_ddot": 0,
        "tle_line1": "1 28893U 05043D   25343.26476576  .00000950  00000+0  19053-3 0  9996",
        "tle_line2": "2 28893  98.2601 111.8128 0015169 147.3178 212.8966 14.63956923 72734"
      },
      "geometry": {
        "type": "Point",
        "coordinates": [
          90.91525240727682,
          68.16149460289559
        ]
      }
    },
    {
      "type": "Feature",
      "properties": {
        "norad_id": 29079,
        "name": "EROS B",
        "group": "resource",
        "lat": -3.2766007219302735,
        "lon": 100.47069672170467,
        "alt_km": 370.8653812791181,
        "timestamp": "2025-12-09T14:52:25.822357+00:00",
        "meta_object_name": "EROS B",
        "meta_object_id": "2006-014A",
        "meta_epoch": "2025-12-09T07:13:28.060608",
        "meta_mean_motion": 15.66862645,
        "meta_eccentricity": 0.00016248,
        "meta_inclination": 97.3477,
        "meta_ra_of_asc_node": 99.7142,
        "meta_arg_of_pericenter": 281.9694,
        "meta_mean_anomaly": 78.1384,
        "meta_ephemeris_type": 0,
        "meta_classification_type": "U",
        "meta_norad_cat_id": 29079,
        "meta_element_set_no": 999,
        "meta_rev_at_epoch": 9026,
        "meta_bstar": 0.001700954,
        "meta_mean_motion_dot": 0.00183197,
        "meta_mean_motion_ddot": 0,
        "tle_line1": "1 29079U 06014A   25343.30101922  .00183197  00000+0  17010-2 0  9992",
        "tle_line2": "2 29079  97.3477  99.7142 0001624 281.9694  78.1384 15.66862645 90267"
      },
      "geometry": {
        "type": "Point",
        "coordinates": [
          100.47069672170467,
          -3.2766007219302735
        ]
      }
    },
    {
      "type": "Feature",
      "properties": {
        "norad_id": 29228,
        "name": "RESURS-DK 1",
        "group": "resource",
        "lat": 11.995466079284604,
        "lon": -74.55252451026078,
        "alt_km": 530.7888558552859,
        "timestamp": "2025-12-09T14:52:25.822367+00:00",
        "meta_object_name": "RESURS-DK 1",
        "meta_object_id": "2006-021A",
        "meta_epoch": "2025-12-08T19:05:06.967392",
        "meta_mean_motion": 15.12128967,
        "meta_eccentricity": 0.00076083,
        "meta_inclination": 69.9338,
        "meta_ra_of_asc_node": 112.0315,
        "meta_arg_of_pericenter": 262.3971,
        "meta_mean_anomaly": 97.6331,
        "meta_ephemeris_type": 0,
        "meta_classification_type": "U",
        "meta_norad_cat_id": 29228,
        "meta_element_set_no": 999,
        "meta_rev_at_epoch": 7378,
        "meta_bstar": 0.00029266812,
        "meta_mean_motion_dot": 4.953e-05,
        "meta_mean_motion_ddot": 0,
        "tle_line1": "1 29228U 06021A   25342.79521953  .00004953  00000+0  29267-3 0  9998",
        "tle_line2": "2 29228  69.9338 112.0315 0007608 262.3971  97.6331 15.12128967 73783"
      },
      "geometry": {
        "type": "Point",
        "coordinates": [
          -74.55252451026078,
          11.995466079284604
        ]
      }
    }
  ]
}